{
"type": "FeatureCollection",
"name": "data_suivi_ecs_adresse",
"crs": { "type": "name", "properties": { "name": "urn:ogc:def:crs:OGC:1.3:CRS84" } },
"features": [
{ "type": "Feature", "properties": { "id_projet": "ecs-2024-01", "lib_com": "Montreuil", "insee_com": "93048", "adresse": "198 Rue de Paris 93100 Montreuil", "dispositif": "Financement projet 2ème vie", "thematique": "Deuxième vie des objets", "nom_projet": "Village du réemploi solidaire - La Venelle", "nom_projet_carto": "La Venelle", "description": "aménagement de 8 boutiques de réemploi solidaire en rdc d'habitations", "annee": "2024", "deliberation": "CM2024/12/16/28", "nom_beneficaire": "association du Village du réemploi solidaire", "cat_beneficiaire": "Association", "type_aide": "Financement", "representation_carto": "Adresse (point)", "intermediaire": "Non", "territoire": "T08", "financement_fim": "Non", "trophee_ECS": "Oui", "competence": "Développement et d’aménagement économique, social et culturel" }, "geometry": { "type": "Point", "coordinates": [ 2.421927, 48.855592 ] } },
{ "type": "Feature", "properties": { "id_projet": "ecs-2025-01", "lib_com": "Ormesson-sur-Marne", "insee_com": "94055", "adresse": "13 Avenue Wladimir d'Ormesson 94490 Ormesson-sur-Marne", "dispositif": "Financement projet 2ème vie", "thematique": "Deuxième vie des objets", "nom_projet": "Création d'une ressourcerie", "nom_projet_carto": "Renouv’elle", "description": "aménagement d'un local communal pour accueillir une ressourcerie", "annee": "2025", "deliberation": "BM2025/06/24/14", "nom_beneficaire": "Ville d'Ormesson-sur-Marne", "cat_beneficiaire": "Commune", "type_aide": "Financement", "representation_carto": "Adresse (point)", "intermediaire": "Non", "territoire": "T11", "financement_fim": "Non", "trophee_ECS": null, "competence": "Développement et d’aménagement économique, social et culturel" }, "geometry": { "type": "Point", "coordinates": [ 2.541155, 48.786139 ] } },
{ "type": "Feature", "properties": { "id_projet": "ecs-2025-02", "lib_com": "Paris", "insee_com": "75120", "adresse": "56 Boulevard Davout 75020 Paris", "dispositif": "Financement projet 2ème vie", "thematique": "Deuxième vie des objets", "nom_projet": "atelier urbain de reconditionnement d'électroménager", "nom_projet_carto": "L'atelier urbain", "description": "Création d'un atelier urbain de reconditionnement de gros électroménager", "annee": "2025", "deliberation": "BM2025/06/24/14", "nom_beneficaire": "Envie", "cat_beneficiaire": "Binôme association et commune/EPT", "type_aide": "Financement", "representation_carto": "Adresse (point)", "intermediaire": "Non", "territoire": "T01", "financement_fim": "Non", "trophee_ECS": null, "competence": "Développement et d’aménagement économique, social et culturel" }, "geometry": { "type": "Point", "coordinates": [ 2.411183, 48.852054 ] } },
{ "type": "Feature", "properties": { "id_projet": "ecs-2025-08", "lib_com": "Noisy-le-Sec", "insee_com": "93053", "adresse": "75 Rue du Parc 93130 Noisy-le-Sec", "dispositif": "Financement projet centre de réemploi BTP", "thematique": "BTP Centre de réemploi de matériaux du BTP", "nom_projet": "Atelier de reconditionnement de céramique", "nom_projet_carto": "Atelier de reconditionnement de céramique", "description": "Ouverture d'un centre de stockage et reconditionnement de céramiques (appareils sanitaires)", "annee": "2025", "deliberation": "BM2025/06/24/14", "nom_beneficaire": "Cycle Up", "cat_beneficiaire": "TPE/PME/association", "type_aide": "Financement", "representation_carto": "Adresse (point)", "intermediaire": "Non", "territoire": "T08", "financement_fim": "Non", "trophee_ECS": null, "competence": "Développement et d’aménagement économique, social et culturel" }, "geometry": { "type": "Point", "coordinates": [ 2.445421, 48.890528 ] } },
{ "type": "Feature", "properties": { "id_projet": "ecs-2025-09", "lib_com": "Vitry-sur-Seine", "insee_com": "94081", "adresse": "Rue Tortue 94400 Vitry-sur-Seine", "dispositif": "Financement projet centre de réemploi BTP", "thematique": "BTP Centre de réemploi de matériaux du BTP", "nom_projet": "Cynéo Centre technique du réemploi", "nom_projet_carto": "Cynéo", "description": "Centre technique du réemploi permettant de mutualiser les moyens physiques (stockage, ateliers de reconditionnement, showroom, logistique) et de sensibiliser et former les acteurs de la construction et de l'immobilier.", "annee": "2025", "deliberation": "BM2025/10/06/12", "nom_beneficaire": "Cynéo", "cat_beneficiaire": "TPE/PME/association", "type_aide": "Financement", "representation_carto": "Adresse (point)", "intermediaire": "Non", "territoire": "T12", "financement_fim": "Non", "trophee_ECS": null, "competence": "Développement et d’aménagement économique, social et culturel" }, "geometry": { "type": "Point", "coordinates": [ 2.413352, 48.786552 ] } },
{ "type": "Feature", "properties": { "id_projet": "ecs-2025-10", "lib_com": "Noisy-le-Sec", "insee_com": "93053", "adresse": "121 Rue du Parc 93130 Noisy-le-Sec", "dispositif": "Financement projet construction et aménagement circulaire", "thematique": "BTP Centre de réemploi de matériaux du BTP", "nom_projet": "Plateforme régionale du réemploi CIBDF", "nom_projet_carto": "Plateforme régionale du réemploi", "description": "Ouverture d'une plateforme interne pour structurer la filière de réemploi comme processus inhérent aux activités de quartiers et bricobus de l'association.", "annee": "2025", "deliberation": "BM2025/03/25/09", "nom_beneficaire": "Les Compagnons Bâtisseurs", "cat_beneficiaire": "Association", "type_aide": "Financement", "representation_carto": "Adresse (point)", "intermediaire": "Non", "territoire": "T08", "financement_fim": "Non", "trophee_ECS": null, "competence": "Développement et d’aménagement économique, social et culturel" }, "geometry": { "type": "Point", "coordinates": [ 2.441951, 48.897679 ] } },
{ "type": "Feature", "properties": { "id_projet": "ecs-2022-01", "lib_com": "Aulnay-sous-Bois", "insee_com": "93005", "adresse": "34 Avenue du Clocher 93600 Aulnay-sous-Bois", "dispositif": "Accompagnement à la rénovation circulaire des bâtiments publics", "thematique": "BTP Construction et aménagement circulaire", "nom_projet": "Aulnay-sous-Bois, Laiterie Garcelon", "nom_projet_carto": "Laiterie Garcelon", "description": "Accompagnement du projet de rénovation de la Laiterie Garcelon en économie circulaire, à Aulnay-sous-Bois", "annee": "2022", "deliberation": null, "nom_beneficaire": "Ville d'Aulnay-sous-Bois", "cat_beneficiaire": "Commune", "type_aide": "Accompagnement", "representation_carto": "Adresse (point)", "intermediaire": "Non", "territoire": "T07", "financement_fim": "Non", "trophee_ECS": null, "competence": "Développement et d’aménagement économique, social et culturel" }, "geometry": { "type": "Point", "coordinates": [ 2.502692, 48.928021 ] } },
{ "type": "Feature", "properties": { "id_projet": "ecs-2022-02", "lib_com": "Chaville", "insee_com": "92022", "adresse": "50 Rue Alexis Maneyrol 92370 Chaville", "dispositif": "Accompagnement à la rénovation circulaire des bâtiments publics", "thematique": "BTP Construction et aménagement circulaire", "nom_projet": "Chaville, Maneyrol", "nom_projet_carto": "Maneyrol", "description": "Accompagnement du projet de rénovation du bâtiment \"Maneyrol\" en économie circulaire, à Chaville", "annee": "2022", "deliberation": null, "nom_beneficaire": "Ville de Chaville", "cat_beneficiaire": "Commune", "type_aide": "Accompagnement", "representation_carto": "Adresse (point)", "intermediaire": "Non", "territoire": "T03", "financement_fim": "Non", "trophee_ECS": null, "competence": "Développement et d’aménagement économique, social et culturel" }, "geometry": { "type": "Point", "coordinates": [ 2.192035, 48.80002 ] } },
{ "type": "Feature", "properties": { "id_projet": "ecs-2022-03", "lib_com": "Colombes", "insee_com": "92025", "adresse": "31 Rue Jules Michelet 92700 Colombes", "dispositif": "Accompagnement à la rénovation circulaire des bâtiments publics", "thematique": "BTP Construction et aménagement circulaire", "nom_projet": "Colombes, Groupe scolaire Langevin Wallon", "nom_projet_carto": "GS Langevin Wallon", "description": "Accompagnement du projet de rénovation du groupe scolaire Langevin Wallon en économie circulaire, à Colombes", "annee": "2022", "deliberation": null, "nom_beneficaire": "Ville de Colombes", "cat_beneficiaire": "Commune", "type_aide": "Accompagnement", "representation_carto": "Adresse (point)", "intermediaire": "Non", "territoire": "T05", "financement_fim": "Non", "trophee_ECS": null, "competence": "Développement et d’aménagement économique, social et culturel" }, "geometry": { "type": "Point", "coordinates": [ 2.268634, 48.932026 ] } },
{ "type": "Feature", "properties": { "id_projet": "ecs-2022-04", "lib_com": "Gennevilliers", "insee_com": "92036", "adresse": "Rue du 8 Mai 1945 92230 Gennevilliers", "dispositif": "Accompagnement à la rénovation circulaire des bâtiments publics", "thematique": "BTP Construction et aménagement circulaire", "nom_projet": "Gennevilliers, Groupe scolaire Henri Wallon", "nom_projet_carto": "GS Henri Wallon", "description": "Accompagnement du projet de rénovation du groupe scolaire Henri Wallon en économie circulaire, à Gennevilliers", "annee": "2022", "deliberation": null, "nom_beneficaire": "Ville de Gennevilliers", "cat_beneficiaire": "Commune", "type_aide": "Accompagnement", "representation_carto": "Adresse (point)", "intermediaire": "Non", "territoire": "T05", "financement_fim": "Non", "trophee_ECS": null, "competence": "Développement et d’aménagement économique, social et culturel" }, "geometry": { "type": "Point", "coordinates": [ 2.291542, 48.921935 ] } },
{ "type": "Feature", "properties": { "id_projet": "ecs-2022-05", "lib_com": "Périgny", "insee_com": "94056", "adresse": "Route de Brie Comte Robert 94520 Périgny", "dispositif": "Accompagnement à la rénovation circulaire des bâtiments publics", "thematique": "BTP Construction et aménagement circulaire", "nom_projet": "Grand Paris Sud Est Avenir, Maison de la Nature et de l'Environnement de Périgny-sur-Yerres", "nom_projet_carto": "GPSEA, Maison Nature Environnement", "description": "Accompagnement du projet de rénovation de la Maison de la Nature et de l'Environnement en économie circulaire, à Périgny-sur-Yerres", "annee": "2022", "deliberation": null, "nom_beneficaire": "EPT Grand Paris Sud Est Avenir", "cat_beneficiaire": "EPT", "type_aide": "Accompagnement", "representation_carto": "Adresse (point)", "intermediaire": "Non", "territoire": "T11", "financement_fim": "Non", "trophee_ECS": "Oui", "competence": "Développement et d’aménagement économique, social et culturel" }, "geometry": { "type": "Point", "coordinates": [ 2.55806, 48.696281 ] } },
{ "type": "Feature", "properties": { "id_projet": "ecs-2022-06", "lib_com": "Livry-Gargan", "insee_com": "93046", "adresse": "1 Rue Camille Nicolas 93190 Livry-Gargan", "dispositif": "Accompagnement à la rénovation circulaire des bâtiments publics", "thematique": "BTP Construction et aménagement circulaire", "nom_projet": "Livry-Gargan, Ecole Jacob", "nom_projet_carto": "École Jacob", "description": "Accompagnement du projet de rénovation de l'école Jacob en économie circulaire, à Livry-Gargan", "annee": "2022", "deliberation": null, "nom_beneficaire": "Ville de Livry-Gargan", "cat_beneficiaire": "Commune", "type_aide": "Accompagnement", "representation_carto": "Adresse (point)", "intermediaire": "Non", "territoire": "T09", "financement_fim": "Non", "trophee_ECS": null, "competence": "Développement et d’aménagement économique, social et culturel" }, "geometry": { "type": "Point", "coordinates": [ 2.543814, 48.925546 ] } },
{ "type": "Feature", "properties": { "id_projet": "ecs-2022-07", "lib_com": "Montfermeil", "insee_com": "93047", "adresse": "3 Avenue Montgolfier 93370 Montfermeil", "dispositif": "Accompagnement à la rénovation circulaire des bâtiments publics", "thematique": "BTP Construction et aménagement circulaire", "nom_projet": "Montfermeil, Ecole Joliot Curie", "nom_projet_carto": "École Joliot Curie", "description": "Accompagnement du projet de rénovation de l'école Joliot Curie en économie circulaire, à Montfermeil", "annee": "2022", "deliberation": null, "nom_beneficaire": "Ville de Montfermeil", "cat_beneficiaire": "Commune", "type_aide": "Accompagnement", "representation_carto": "Adresse (point)", "intermediaire": "Non", "territoire": "T09", "financement_fim": "Non", "trophee_ECS": null, "competence": "Développement et d’aménagement économique, social et culturel" }, "geometry": { "type": "Point", "coordinates": [ 2.583319, 48.903596 ] } },
{ "type": "Feature", "properties": { "id_projet": "ecs-2022-08", "lib_com": "Neuilly-Plaisance", "insee_com": "93049", "adresse": "10 Avenue Danielle Casanova 93360 Neuilly-Plaisance", "dispositif": "Accompagnement à la rénovation circulaire des bâtiments publics", "thematique": "BTP Construction et aménagement circulaire", "nom_projet": "Neuilly-Plaisance, Ferme Terrisse", "nom_projet_carto": "Ferme Terrisse", "description": "Accompagnement du projet de rénovation de la Ferme Terrisse en économie circulaire, à Neuilly-Plaisance", "annee": "2022", "deliberation": null, "nom_beneficaire": "Ville de Neuilly-Plaisance", "cat_beneficiaire": "Commune", "type_aide": "Accompagnement", "representation_carto": "Adresse (point)", "intermediaire": "Non", "territoire": "T09", "financement_fim": "Non", "trophee_ECS": null, "competence": "Développement et d’aménagement économique, social et culturel" }, "geometry": { "type": "Point", "coordinates": [ 2.503164, 48.857854 ] } },
{ "type": "Feature", "properties": { "id_projet": "ecs-2022-09", "lib_com": "Neuilly-Plaisance", "insee_com": "93049", "adresse": "2bis Chemin Tortu 93360 Neuilly-Plaisance", "dispositif": "Accompagnement à la rénovation circulaire des bâtiments publics", "thematique": "BTP Construction et aménagement circulaire", "nom_projet": "Neuilly-Plaisance, Piscine municipale", "nom_projet_carto": "Piscine", "description": "Accompagnement du projet de rénovation d'une piscine municipale en économie circulaire, à Neuilly-Plaisance", "annee": "2022", "deliberation": null, "nom_beneficaire": "Ville de Neuilly-Plaisance", "cat_beneficiaire": "Commune", "type_aide": "Accompagnement", "representation_carto": "Adresse (point)", "intermediaire": "Non", "territoire": "T09", "financement_fim": "Non", "trophee_ECS": null, "competence": "Développement et d’aménagement économique, social et culturel" }, "geometry": { "type": "Point", "coordinates": [ 2.516821, 48.860643 ] } },
{ "type": "Feature", "properties": { "id_projet": "ecs-2022-10", "lib_com": "Neuilly-sur-Marne", "insee_com": "93050", "adresse": "4 Rue Abel Tuffier 93330 Neuilly-sur-Marne", "dispositif": "Accompagnement à la rénovation circulaire des bâtiments publics", "thematique": "BTP Construction et aménagement circulaire", "nom_projet": "Neuilly-sur-Marne, Groupe scolaire Pasteur", "nom_projet_carto": "GS Pasteur", "description": "Accompagnement du projet de rénovation du groupe scolaire Pasteur en économie circulaire, à Neuilly-sur-Marne", "annee": "2022", "deliberation": null, "nom_beneficaire": "Ville de Neuilly-sur-Marne", "cat_beneficiaire": "Commune", "type_aide": "Accompagnement", "representation_carto": "Adresse (point)", "intermediaire": "Non", "territoire": "T09", "financement_fim": "Non", "trophee_ECS": null, "competence": "Développement et d’aménagement économique, social et culturel" }, "geometry": { "type": "Point", "coordinates": [ 2.534681, 48.857251 ] } },
{ "type": "Feature", "properties": { "id_projet": "ecs-2022-11", "lib_com": "Noisy-le-Grand", "insee_com": "93051", "adresse": "5 Rue du Rond Point 93160 Noisy-le-Grand", "dispositif": "Accompagnement à la rénovation circulaire des bâtiments publics", "thematique": "BTP Construction et aménagement circulaire", "nom_projet": "Noisy-le-Grand, Groupe scolaire Coteaux", "nom_projet_carto": "GS Coteaux", "description": "Accompagnement du projet de rénovation du groupe scolaire des Coteaux en économie circulaire, à Noisy-le-Grand", "annee": "2022", "deliberation": null, "nom_beneficaire": "Ville de Noisy-le-Grand", "cat_beneficiaire": "Commune", "type_aide": "Accompagnement", "representation_carto": "Adresse (point)", "intermediaire": "Non", "territoire": "T09", "financement_fim": "Non", "trophee_ECS": null, "competence": "Développement et d’aménagement économique, social et culturel" }, "geometry": { "type": "Point", "coordinates": [ 2.569429, 48.85356 ] } },
{ "type": "Feature", "properties": { "id_projet": "ecs-2022-12", "lib_com": "Paris", "insee_com": "75109", "adresse": "16 Rue Chaptal 75009 Paris", "dispositif": "Accompagnement à la rénovation circulaire des bâtiments publics", "thematique": "BTP Construction et aménagement circulaire", "nom_projet": "Paris Musées, Musée de la Vie Romantique", "nom_projet_carto": "Paris Musées, Musée de la Vie Romantique", "description": "Accompagnement du projet de rénovation du Musée de la Vie Romantique en économie circulaire, à Paris", "annee": "2022", "deliberation": null, "nom_beneficaire": "Paris Musées", "cat_beneficiaire": "Établissements publics", "type_aide": "Accompagnement", "representation_carto": "Adresse (point)", "intermediaire": "Non", "territoire": "T01", "financement_fim": "Non", "trophee_ECS": null, "competence": "Développement et d’aménagement économique, social et culturel" }, "geometry": { "type": "Point", "coordinates": [ 2.333289, 48.880901 ] } },
{ "type": "Feature", "properties": { "id_projet": "ecs-2022-13", "lib_com": "Sceaux", "insee_com": "92071", "adresse": "20 Rue des Imbergères 92330 Sceaux", "dispositif": "Accompagnement à la rénovation circulaire des bâtiments publics", "thematique": "BTP Construction et aménagement circulaire", "nom_projet": "Sceaux, Les Garages", "nom_projet_carto": "Les Garages", "description": "Accompagnement du projet de rénovation de la salle municipale \"Les Garages\" en économie circulaire, à Sceaux", "annee": "2022", "deliberation": null, "nom_beneficaire": "Ville de Sceaux", "cat_beneficiaire": "Commune", "type_aide": "Accompagnement", "representation_carto": "Adresse (point)", "intermediaire": "Non", "territoire": "T02", "financement_fim": "Non", "trophee_ECS": null, "competence": "Développement et d’aménagement économique, social et culturel" }, "geometry": { "type": "Point", "coordinates": [ 2.291323, 48.776617 ] } },
{ "type": "Feature", "properties": { "id_projet": "ecs-2026-01", "lib_com": "Bagneux", "insee_com": "92007", "adresse": "6 Rue Serge Prokofiev 92220 Bagneux", "dispositif": "Accompagnement à la rénovation circulaire des bâtiments publics", "thematique": "BTP Construction et aménagement circulaire", "nom_projet": "Bagneux, Crèche Prokofiev", "nom_projet_carto": "Crèche Prokofiev", "description": "Accompagnement du projet de rénovation de la Crèche Prokofiev en économie circulaire, à Bagneux", "annee": "2026", "deliberation": null, "nom_beneficaire": "Ville de Bagneux", "cat_beneficiaire": "Commune", "type_aide": "Accompagnement", "representation_carto": "Adresse (point)", "intermediaire": "Non", "territoire": "T02", "financement_fim": "Non", "trophee_ECS": null, "competence": "Développement et d’aménagement économique, social et culturel" }, "geometry": { "type": "Point", "coordinates": [ 2.315938, 48.804421 ] } },
{ "type": "Feature", "properties": { "id_projet": "ecs-2026-03", "lib_com": "Paray-Vieille-Poste", "insee_com": "91479", "adresse": "42 Avenue Victor Hugo 91550 Paray-Vieille-Poste", "dispositif": "Accompagnement à la rénovation circulaire des bâtiments publics", "thematique": "BTP Construction et aménagement circulaire", "nom_projet": "Paray-Vieille-Poste, Ecole Victor Hugo", "nom_projet_carto": "Ecole Victor Hugo", "description": "Accompagnement du projet de rénovation de l'école Victor Hugo en économie circulaire, à Paray-Vieille-Poste", "annee": "2026", "deliberation": null, "nom_beneficaire": "Ville de Paray-Vieille-Poste", "cat_beneficiaire": "Commune", "type_aide": "Accompagnement", "representation_carto": "Adresse (point)", "intermediaire": "Non", "territoire": "T12", "financement_fim": "Non", "trophee_ECS": null, "competence": "Développement et d’aménagement économique, social et culturel" }, "geometry": { "type": "Point", "coordinates": [ 2.363143, 48.709695 ] } },
{ "type": "Feature", "properties": { "id_projet": "ecs-2026-05", "lib_com": "Sucy-en-Brie", "insee_com": "94071", "adresse": "30 Rue Montaleau 94370 Sucy-en-Brie", "dispositif": "Accompagnement à la rénovation circulaire des bâtiments publics", "thematique": "BTP Construction et aménagement circulaire", "nom_projet": "Sucy-en-Brie, Ecole Montaleau", "nom_projet_carto": "Ecole Montaleau", "description": "Accompagnement du projet de rénovation de l'école Montaleau en économie circulaire, à Sucy-en-Brie", "annee": "2026", "deliberation": null, "nom_beneficaire": "Ville de Sucy-en-Brie", "cat_beneficiaire": "Commune", "type_aide": "Accompagnement", "representation_carto": "Adresse (point)", "intermediaire": "Non", "territoire": "T11", "financement_fim": "Non", "trophee_ECS": null, "competence": "Développement et d’aménagement économique, social et culturel" }, "geometry": { "type": "Point", "coordinates": [ 2.51679, 48.770579 ] } },
{ "type": "Feature", "properties": { "id_projet": "ecs-2026-06", "lib_com": "Villiers-sur-Marne", "insee_com": "94079", "adresse": "9 Avenue de l'Isle 94350 Villiers-sur-Marne", "dispositif": "Accompagnement à la rénovation circulaire des bâtiments publics", "thematique": "BTP Construction et aménagement circulaire", "nom_projet": "Villiers-sur-Marne, Villa Michot", "nom_projet_carto": "Villa Michot", "description": "Accompagnement du projet de rénovation de la Villa Michot en économie circulaire, à Villiers-sur-Marne", "annee": "2026", "deliberation": null, "nom_beneficaire": "Ville de Villiers-sur-Marne", "cat_beneficiaire": "Commune", "type_aide": "Accompagnement", "representation_carto": "Adresse (point)", "intermediaire": "Non", "territoire": "T10", "financement_fim": "Non", "trophee_ECS": null, "competence": "Développement et d’aménagement économique, social et culturel" }, "geometry": { "type": "Point", "coordinates": [ 2.546364, 48.828516 ] } },
{ "type": "Feature", "properties": { "id_projet": "ecs-2025-11", "lib_com": "L'Île-Saint-Denis", "insee_com": "93039", "adresse": "13 Quai du Châtelier 93450 L'Île-Saint-Denis", "dispositif": "Financement projet centre de réemploi BTP", "thematique": "BTP Centre de réemploi de matériaux du BTP", "nom_projet": "Plateforme de réemploi Solid-R", "nom_projet_carto": "Solid-R", "description": "Aménagement et exploitation d'un centre de réemploi des matériaux de construction (stockage et reconditionnement) à l'Ile-Saint-Denis", "annee": "2025", "deliberation": "BM2025/02/04/16", "nom_beneficaire": "Réavie", "cat_beneficiaire": "Association", "type_aide": "Financement", "representation_carto": "Adresse (point)", "intermediaire": "Non", "territoire": "T06", "financement_fim": "Non", "trophee_ECS": null, "competence": "Développement et d’aménagement économique, social et culturel" }, "geometry": { "type": "Point", "coordinates": [ 2.332394, 48.92358 ] } },
{ "type": "Feature", "properties": { "id_projet": "ecs-2025-12", "lib_com": "Bagnolet", "insee_com": "93006", "adresse": "Rue Sadi Carnot 93170 Bagnolet", "dispositif": "Accompagnement sur le sujet des terres végétales recyclées", "thematique": "BTP Terres végétales recyclées", "nom_projet": "Est Ensemble et Bagnolet, Grand Chemin, Tronçon de Bagnolet", "nom_projet_carto": "Est Ensemble, Grand Chemin", "description": "Accompagnement de l'EPT Est Ensemble et de la Ville de Bagnolet dans l'intégration de terres végétales recyclées dans le cadre de la création du projet d'aménagement urbain \"Le Grand Chemin\", sur le tronçon de Bagnolet.", "annee": "2025", "deliberation": null, "nom_beneficaire": "EPT Est Ensemble", "cat_beneficiaire": "EPT", "type_aide": "Accompagnement", "representation_carto": "Adresse (point)", "intermediaire": "Non", "territoire": "T08", "financement_fim": "Non", "trophee_ECS": null, "competence": "Développement et d’aménagement économique, social et culturel" }, "geometry": { "type": "Point", "coordinates": [ 2.42107, 48.871169 ] } },
{ "type": "Feature", "properties": { "id_projet": "ecs-2025-13", "lib_com": "Chaville", "insee_com": "92022", "adresse": "50 Rue Alexis Maneyrol 92370 Chaville", "dispositif": "Accompagnement sur le sujet des terres végétales recyclées", "thematique": "BTP Terres végétales recyclées", "nom_projet": "Chaville, Maneyrol", "nom_projet_carto": "Maneyrol", "description": "Accompagnement de la Ville de Chaville dans l'intégration de terres végétales recyclées dans cadre du projet \"Maneyrol\" (espaces paysagers extérieurs).", "annee": "2025", "deliberation": null, "nom_beneficaire": "Ville de Chaville", "cat_beneficiaire": "Commune", "type_aide": "Accompagnement", "representation_carto": "Adresse (point)", "intermediaire": "Non", "territoire": "T03", "financement_fim": "Non", "trophee_ECS": null, "competence": "Développement et d’aménagement économique, social et culturel" }, "geometry": { "type": "Point", "coordinates": [ 2.192035, 48.80002 ] } },
{ "type": "Feature", "properties": { "id_projet": "ecs-2025-15", "lib_com": "Stains", "insee_com": "93072", "adresse": "49 Avenue George Sand 93240 Stains", "dispositif": "Accompagnement sur le sujet des terres végétales recyclées", "thematique": "BTP Terres végétales recyclées", "nom_projet": "Stains, Pôle ESS Maurice Thorez", "nom_projet_carto": "Pôle ESS Maurice Thorez", "description": "Accompagnement de la Ville de Stains dans l'intégration de terres végétales recyclées dans cadre du projet \"Pôle ESS Maurice Thorez\" (espaces paysagers extérieurs).", "annee": "2025", "deliberation": null, "nom_beneficaire": "Ville de Stains", "cat_beneficiaire": "Commune", "type_aide": "Accompagnement", "representation_carto": "Adresse (point)", "intermediaire": "Non", "territoire": "T06", "financement_fim": "Non", "trophee_ECS": null, "competence": "Développement et d’aménagement économique, social et culturel" }, "geometry": { "type": "Point", "coordinates": [ 2.375154, 48.953365 ] } },
{ "type": "Feature", "properties": { "id_projet": "ecs-2025-21", "lib_com": null, "insee_com": null, "adresse": null, "dispositif": "Financement projet alimentation et biodéchet", "thematique": "Alimentation et biodéchets", "nom_projet": "EPT Grand Orly Seine Bièvre, Valorisation Renouée du Japon", "nom_projet_carto": "GOSB, Valorisation Renouée", "description": "Soutien à une expérimentation autour de la valorisation du biodéchets produit par la Rénouée du Japon, sur le territoire de l'EPT Grand Orly Seine Bièvre", "annee": "2025", "deliberation": null, "nom_beneficaire": "EPT Grand Orly Seine Bièvre", "cat_beneficiaire": "EPT", "type_aide": "Financement", "representation_carto": "Adresse (point)", "intermediaire": "Non", "territoire": "T12", "financement_fim": "Non", "trophee_ECS": null, "competence": "Développement et d’aménagement économique, social et culturel" }, "geometry": { "type": "Point", "coordinates": [ 2.388757, 48.667379 ] } },
{ "type": "Feature", "properties": { "id_projet": "ecs-2025-22", "lib_com": "Romainville", "insee_com": "93063", "adresse": "2 Rue Jean Charcot 93230 Romainville", "dispositif": "Financement projet alimentation et biodéchet", "thematique": "Alimentation et biodéchets", "nom_projet": "Romainville, cantine scolaire Barbusse Charcot", "nom_projet_carto": "Cantine GS Charcot-Barbusse", "description": "Création d'une cuisine de production en milieu scolaire permettant le déploiement de cantines bio, locales, \"fait maison\"", "annee": "2025", "deliberation": "BM2025/03/25/09", "nom_beneficaire": "Ville de Romainville", "cat_beneficiaire": "Commune", "type_aide": "Financement", "representation_carto": "Adresse (point)", "intermediaire": "Non", "territoire": "T08", "financement_fim": "Non", "trophee_ECS": null, "competence": "Développement et d’aménagement économique, social et culturel" }, "geometry": { "type": "Point", "coordinates": [ 2.440896, 48.878573 ] } },
{ "type": "Feature", "properties": { "id_projet": "ecs-2025-23", "lib_com": "Romainville", "insee_com": "93063", "adresse": "Rue Louis Aubin 93230 Romainville", "dispositif": "Financement projet alimentation et biodéchet", "thematique": "Alimentation et biodéchets", "nom_projet": "Romainville, cantine scolaire Barbusse", "nom_projet_carto": "Cantine GS Fraternité-Gallèpe", "description": "Création d'une cuisine de production en milieu scolaire permettant le déploiement de cantines bio, locales, \"fait maison\"", "annee": "2025", "deliberation": "BM2025/03/25/09", "nom_beneficaire": "Ville de Romainville", "cat_beneficiaire": "Commune", "type_aide": "Financement", "representation_carto": "Adresse (point)", "intermediaire": "Non", "territoire": "T08", "financement_fim": "Non", "trophee_ECS": null, "competence": "Développement et d’aménagement économique, social et culturel" }, "geometry": { "type": "Point", "coordinates": [ 2.445233, 48.875306 ] } },
{ "type": "Feature", "properties": { "id_projet": "ecs-2025-24", "lib_com": "Les Lilas", "insee_com": "93045", "adresse": "Rue Paul Langevin 93260 Les Lilas", "dispositif": "Financement projet alimentation et biodéchet", "thematique": "Alimentation et biodéchets", "nom_projet": "Les Lilas, cantine scolaire Langevin-Daubié", "nom_projet_carto": "Ma cantine comme à la maison", "description": "Création d'une cuisine de production pour les écoles Langevin et Daubié, 100% bio et fait maison", "annee": "2025", "deliberation": "BM2025/03/25/09", "nom_beneficaire": "Ville des Lilas", "cat_beneficiaire": "Commune", "type_aide": "Accompagnement", "representation_carto": "Adresse (point)", "intermediaire": "Non", "territoire": "T08", "financement_fim": "Non", "trophee_ECS": null, "competence": "Développement et d’aménagement économique, social et culturel" }, "geometry": { "type": "Point", "coordinates": [ 2.422698, 48.883687 ] } },
{ "type": "Feature", "properties": { "id_projet": "ecs-2025-26", "lib_com": "Montreuil", "insee_com": "93048", "adresse": "30 Rue Saint Antoine 93100 Montreuil", "dispositif": "Financement projet alimentation et biodéchet", "thematique": "Alimentation et biodéchets", "nom_projet": "Montreuil, plateforme alimentaire solidaire", "nom_projet_carto": "Montreuil Solidarité Alimentaire", "description": "Structuration et développement d'une filière alimentaire solidaire et durable, par la création d'une plateforme logistique et numérique,\r\nportée dans le cadre de la Stratégie Alimentaire de Territoire et de la Coordination des Acteurs Sociaux et de l'Aide Alimentaire de Montreuil (CASAAM).", "annee": "2025", "deliberation": "BM2025/06/24/14", "nom_beneficaire": "Ville de Montreuil", "cat_beneficiaire": "Commune", "type_aide": "Financement", "representation_carto": "Adresse (point)", "intermediaire": "Non", "territoire": "T08", "financement_fim": "Non", "trophee_ECS": null, "competence": "Développement et d’aménagement économique, social et culturel" }, "geometry": { "type": "Point", "coordinates": [ 2.455889, 48.865118 ] } },
{ "type": "Feature", "properties": { "id_projet": "ecs-2025-27", "lib_com": "Antony", "insee_com": "92002", "adresse": "204 Rue Adolphe Pajeaud 92160 Antony", "dispositif": "Financement projet 2ème vie", "thematique": "Deuxième vie des objets", "nom_projet": "Les Ateliers d'Antraide", "nom_projet_carto": "Les Ateliers d'Antraide", "description": "Entreprise à But d'emploi avec ressourcerie, atelier vélo, conciergerie solidaire, et atelier numérique", "annee": "2025", "deliberation": "BM2025/03/25/09", "nom_beneficaire": "Antraide", "cat_beneficiaire": "Association", "type_aide": "Financement", "representation_carto": "Adresse (point)", "intermediaire": "Non", "territoire": "T02", "financement_fim": "Non", "trophee_ECS": null, "competence": "Développement et d’aménagement économique, social et culturel" }, "geometry": { "type": "Point", "coordinates": [ 2.281581, 48.740795 ] } },
{ "type": "Feature", "properties": { "id_projet": "ecs-2025-28", "lib_com": "Gennevilliers", "insee_com": "92036", "adresse": "227 Rue des Caboeufs 92230 Gennevilliers", "dispositif": "Financement projet alimentation et biodéchet", "thematique": "Alimentation et biodéchets", "nom_projet": "SYREC, Déploiement du réemploi des contenants", "nom_projet_carto": "Cuisine centrale SYREC", "description": "Passage au tout inox en 2 phases : restructuration de la cuisine centrale (réalisée) et déploiement, avec prestation de location de bacs inox et boucle de lavage, achats de matériels", "annee": "2025", "deliberation": "BM2025/06/24/14", "nom_beneficaire": "SYREC", "cat_beneficiaire": "Établissements publics", "type_aide": "Financement", "representation_carto": "Adresse (point)", "intermediaire": "Non", "territoire": "T05", "financement_fim": "Non", "trophee_ECS": null, "competence": "Développement et d’aménagement économique, social et culturel" }, "geometry": { "type": "Point", "coordinates": [ 2.314318, 48.922267 ] } },
{ "type": "Feature", "properties": { "id_projet": "ecs-2025-29", "lib_com": "Bobigny", "insee_com": "93008", "adresse": "68 Rue Galliéni 93000 Bobigny", "dispositif": "Financement projet alimentation et biodéchet", "thematique": "Alimentation et biodéchets", "nom_projet": "Tables Communes, Déploiement du réemploi des contenants", "nom_projet_carto": "Cuisine Bobigny, Tables Communes", "description": "Achat de matériel et de chaînes de conditionnement adaptées au passage au réemploi", "annee": "2025", "deliberation": "BM2025/06/24/14", "nom_beneficaire": "Tables Communes", "cat_beneficiaire": "Établissements publics", "type_aide": "Financement", "representation_carto": "Adresse (point)", "intermediaire": "Non", "territoire": "T08", "financement_fim": "Non", "trophee_ECS": null, "competence": "Développement et d’aménagement économique, social et culturel" }, "geometry": { "type": "Point", "coordinates": [ 2.434399, 48.902205 ] } },
{ "type": "Feature", "properties": { "id_projet": "ecs-2024-02", "lib_com": "Clamart", "insee_com": "92023", "adresse": "16 Rue du Parc 92140 Clamart", "dispositif": "Financement projet alimentation et biodéchet", "thematique": "Alimentation et biodéchets", "nom_projet": "Clamart, Cantine Louise Michel", "nom_projet_carto": "Cantine Zéro déchet", "description": "Le projet consiste en la mise en place  d’un self écoresponsable afin de réduire le gaspillage alimentaire et en une rénovation des offices pour permettre une cuisine sur site via l’installation de légumeries.", "annee": "2024", "deliberation": "BM2024/06/19/62", "nom_beneficaire": "Ville de Clamart", "cat_beneficiaire": "Commune", "type_aide": "Financement", "representation_carto": "Adresse (point)", "intermediaire": "Non", "territoire": "T02", "financement_fim": "Non", "trophee_ECS": null, "competence": "Développement et d’aménagement économique, social et culturel" }, "geometry": { "type": "Point", "coordinates": [ 2.261166, 48.792112 ] } },
{ "type": "Feature", "properties": { "id_projet": "ecs-2024-03", "lib_com": "Clamart", "insee_com": "92023", "adresse": "38 Avenue Jean-baptiste Clément 92140 Clamart", "dispositif": "Financement projet alimentation et biodéchet", "thematique": "Alimentation et biodéchets", "nom_projet": "Clamart, Cantine La Fontaine", "nom_projet_carto": "Cantine Zéro déchet", "description": "Le projet consiste en la mise en place  d’un self écoresponsable afin de réduire le gaspillage alimentaire et en une rénovation des offices pour permettre une cuisine sur site via l’installation de légumeries.", "annee": "2024", "deliberation": "BM2024/06/19/62", "nom_beneficaire": "Ville de Clamart", "cat_beneficiaire": "Commune", "type_aide": "Financement", "representation_carto": "Adresse (point)", "intermediaire": "Non", "territoire": "T02", "financement_fim": "Non", "trophee_ECS": null, "competence": "Développement et d’aménagement économique, social et culturel" }, "geometry": { "type": "Point", "coordinates": [ 2.267827, 48.79851 ] } },
{ "type": "Feature", "properties": { "id_projet": "ecs-2022-14", "lib_com": "Romainville", "insee_com": "93063", "adresse": "7 Rue Youri Gagarine 93230 Romainville", "dispositif": "Financement projet construction et aménagement circulaire", "thematique": "BTP Construction et aménagement circulaire", "nom_projet": "Mobilier en granito réemployé", "nom_projet_carto": "Mobilier en granito réemployé", "description": "Dispositif de réemploi de matériaux pour la réalisation de mobilier urbain", "annee": "2022", "deliberation": "BM2022/06/14/18", "nom_beneficaire": "Est Ensemble", "cat_beneficiaire": "EPT", "type_aide": "Financement", "representation_carto": "Adresse (point)", "intermediaire": "Non", "territoire": "T08", "financement_fim": "Non", "trophee_ECS": null, "competence": "Développement et d’aménagement économique, social et culturel" }, "geometry": { "type": "Point", "coordinates": [ 2.429472, 48.884992 ] } },
{ "type": "Feature", "properties": { "id_projet": "ecs-2017-01", "lib_com": "Noisy-le-Grand", "insee_com": "93051", "adresse": "9 Rue de la Plaine 93160 Noisy-le-Grand", "dispositif": "Financement projet 2ème vie", "thematique": "Deuxième vie des objets", "nom_projet": "Déchetterie / recyclerie", "nom_projet_carto": "Recyclerie 3R", "description": "Création d'une déchetterie recyclerie", "annee": "2017", "deliberation": null, "nom_beneficaire": "Grand Paris Grand Est", "cat_beneficiaire": "EPT", "type_aide": "Financement", "representation_carto": "Adresse (point)", "intermediaire": "Non", "territoire": "T09", "financement_fim": "Oui", "trophee_ECS": null, "competence": "Développement et d’aménagement économique, social et culturel" }, "geometry": { "type": "Point", "coordinates": [ 2.532966, 48.85122 ] } },
{ "type": "Feature", "properties": { "id_projet": "ecs-2018-01", "lib_com": "Bagneux", "insee_com": "92007", "adresse": "Avenue Jean Baptiste Fortin 92220 Bagneux", "dispositif": "Financement projet 2ème vie", "thematique": "Deuxième vie des objets", "nom_projet": "Ressourcerie", "nom_projet_carto": "Recyclerie", "description": "Création d'une ressourcerie", "annee": "2018", "deliberation": null, "nom_beneficaire": "Bagneux", "cat_beneficiaire": "Commune", "type_aide": "Financement", "representation_carto": "Adresse (point)", "intermediaire": "Non", "territoire": "T02", "financement_fim": "Oui", "trophee_ECS": null, "competence": "Développement et d’aménagement économique, social et culturel" }, "geometry": { "type": "Point", "coordinates": [ 2.300026, 48.796882 ] } },
{ "type": "Feature", "properties": { "id_projet": "ecs-2020-01", "lib_com": "Bonneuil-sur-Marne", "insee_com": "94011", "adresse": "59 Route de l’Ile Saint Julien 94380 Bonneuil-sur-Marne", "dispositif": "Financement projet 2ème vie", "thematique": "Deuxième vie des objets", "nom_projet": "Déchetterie/recyclerie", "nom_projet_carto": "Ressourcerie", "description": "Réalisation d'une éco-déchetterie à Bonneuil-sur-Marne", "annee": "2020", "deliberation": null, "nom_beneficaire": "Paris Est Marne et Bois", "cat_beneficiaire": "EPT", "type_aide": "Financement", "representation_carto": "Adresse (point)", "intermediaire": "Non", "territoire": "T11", "financement_fim": "Oui", "trophee_ECS": null, "competence": "Développement et d’aménagement économique, social et culturel" }, "geometry": { "type": "Point", "coordinates": [ 2.484031, 48.780326 ] } },
{ "type": "Feature", "properties": { "id_projet": "ecs-2022-15", "lib_com": "Boissy-Saint-Léger", "insee_com": "94004", "adresse": "Rue Jacques Prevert 94470 Boissy-Saint-Léger", "dispositif": "Financement projet 2ème vie", "thematique": "Deuxième vie des objets", "nom_projet": "Recyclerie", "nom_projet_carto": "La Boissyclerie", "description": "Rénovation d'un batiment pour installer une recyclerie", "annee": "2022", "deliberation": null, "nom_beneficaire": "Boissy-Saint-Léger", "cat_beneficiaire": "Commune", "type_aide": "Financement", "representation_carto": "Adresse (point)", "intermediaire": "Non", "territoire": "T11", "financement_fim": "Oui", "trophee_ECS": null, "competence": "Développement et d’aménagement économique, social et culturel" }, "geometry": { "type": "Point", "coordinates": [ 2.502998, 48.75416 ] } },
{ "type": "Feature", "properties": { "id_projet": "ecs-2022-16", "lib_com": "Bagneux", "insee_com": "92007", "adresse": "23 Rue de la Lisette 92220 Bagneux", "dispositif": "Financement projet 2ème vie", "thematique": "Deuxième vie des objets", "nom_projet": "Ressourcerie", "nom_projet_carto": "Ressourcerie", "description": "Création d'une ressourcerie", "annee": "2022", "deliberation": null, "nom_beneficaire": "Bagneux", "cat_beneficiaire": "Commune", "type_aide": "Financement", "representation_carto": "Adresse (point)", "intermediaire": "Non", "territoire": "T02", "financement_fim": "Oui", "trophee_ECS": null, "competence": "Développement et d’aménagement économique, social et culturel" }, "geometry": { "type": "Point", "coordinates": [ 2.302558, 48.791392 ] } },
{ "type": "Feature", "properties": { "id_projet": "ecs-2025-30", "lib_com": "L'Île-Saint-Denis", "insee_com": "93039", "adresse": "15 Quai du Châtelier 93450 L'Île-Saint-Denis", "dispositif": "Financement projet centre de réemploi BTP", "thematique": "BTP Centre de réemploi de matériaux du BTP", "nom_projet": "Le Ponton", "nom_projet_carto": "Le Ponton", "description": "Réhabilitation d'une friche industrielle à l'Ile-Saint-Denis pour développer un démonstrateur de grande ampleur : showroom des matériaux de réemploi, espaces de formation, atelier de reconditionnement, incubateur et espaces partagés.", "annee": "2025", "deliberation": null, "nom_beneficaire": "Demcy", "cat_beneficiaire": "Autres acteurs privés", "type_aide": "Financement", "representation_carto": "Adresse (point)", "intermediaire": "Oui", "territoire": "T06", "financement_fim": "Non", "trophee_ECS": null, "competence": "Développement et d’aménagement économique, social et culturel" }, "geometry": { "type": "Point", "coordinates": [ 2.332765, 48.923967 ] } },
{ "type": "Feature", "properties": { "id_projet": "ecs-2025-31", "lib_com": "Villepinte", "insee_com": "93078", "adresse": "5 Allée du Sanglier 93420 Villepinte", "dispositif": "Financement projet centre de réemploi BTP", "thematique": "BTP Centre de réemploi de matériaux du BTP", "nom_projet": "Centre de réemploi / réutilisation - Toit de Paris", "nom_projet_carto": "Toit de Paris", "description": "Location d'un entrepôt à Villepinte pour structurer une filière de réemploi et de réutilisation des matériaux de couverture (zinc, ardoise, tuiles)", "annee": "2025", "deliberation": null, "nom_beneficaire": "Toit de Paris", "cat_beneficiaire": "TPE/PME/association", "type_aide": "Financement", "representation_carto": "Adresse (point)", "intermediaire": "Non", "territoire": "T07", "financement_fim": "Non", "trophee_ECS": null, "competence": "Développement et d’aménagement économique, social et culturel" }, "geometry": { "type": "Point", "coordinates": [ 2.555425, 48.961978 ] } },
{ "type": "Feature", "properties": { "id_projet": "ecs-2025-32", "lib_com": "Fontenay-sous-Bois", "insee_com": "94033", "adresse": "33 Avenue du Maréchal de Lattre de Tassigny 94120 Fontenay-sous-Bois", "dispositif": "Financement projet centre de réemploi BTP", "thematique": "BTP Centre de réemploi de matériaux du BTP", "nom_projet": "Plateforme de réemploi FAB MAB", "nom_projet_carto": "Fab Mab", "description": "Création d'une plateforme de réemploi sur la ZAC du Péripôle à Fontenay-sous-bois, afin de monter des filières de réemploi aujourd'hui absentes du territoire fontenaysien. Exploitation par Réempro pour stockage et reconditionnement de plusieurs familles de produits (briques, sanitaires, faux-planchers)", "annee": "2025", "deliberation": null, "nom_beneficaire": "SPL Marne-au-Bois", "cat_beneficiaire": "Établissements publics", "type_aide": "Financement", "representation_carto": "Adresse (point)", "intermediaire": "Oui", "territoire": "T10", "financement_fim": "Non", "trophee_ECS": null, "competence": "Développement et d’aménagement économique, social et culturel" }, "geometry": { "type": "Point", "coordinates": [ 2.49113, 48.857101 ] } },
{ "type": "Feature", "properties": { "id_projet": "ecs-2023-01", "lib_com": "Stains", "insee_com": "93072", "adresse": "6 Avenue George Sand 93240 Stains", "dispositif": "Financement projet 2ème vie", "thematique": "Deuxième vie des objets", "nom_projet": "Création d'une ressourcerie", "nom_projet_carto": "Ressourcerie", "description": null, "annee": "2023", "deliberation": "BM2023/12/05/03", "nom_beneficaire": "Seine-Saint-Denis Habitat", "cat_beneficiaire": "Établissements publics", "type_aide": "Financement", "representation_carto": "Adresse (point)", "intermediaire": "Non", "territoire": "T06", "financement_fim": "Oui", "trophee_ECS": null, "competence": "Développement et d’aménagement économique, social et culturel" }, "geometry": { "type": "Point", "coordinates": [ 2.374923, 48.948073 ] } }
]
}
