{
"type": "FeatureCollection",
"name": "trophees_ecs_adresse",
"crs": { "type": "name", "properties": { "name": "urn:ogc:def:crs:OGC:1.3:CRS84" } },
"features": [
{ "type": "Feature", "properties": { "id_projet": "ecs-trophees-2023-01", "lib_com": "Saint-Maur-des-Fossés", "insee_com": "94068", "adresse": "3bis Rue André Bollier 94100 Saint-Maur-des-Fossés", "dispositif": "Lauréat Trophée", "thematique": "Achats publics", "nom_projet": "Tricycle & Saint-Maur-des-Fossés - La Maison des étudiants", "nom_projet_carto": "Saint-Maur-des-Fossés & Tricycle - La Maison des étudiants", "annee": "2023", "nom_beneficaire": "Saint-Maur-des-Fossés", "cat_beneficiaire": "Commune", "representation_carto": "Adresse (point)", "montant_sub": null, "territoire": "T10", "competence": "Développement et d’aménagement économique, social et culturel" }, "geometry": { "type": "Point", "coordinates": [ 2.472811, 48.80374 ] } },
{ "type": "Feature", "properties": { "id_projet": "ecs-trophees-2023-02", "lib_com": "Sucy-en-Brie", "insee_com": "94071", "adresse": "75 Rue du Général Leclerc 94370 Sucy-en-Brie", "dispositif": "Lauréat Trophée", "thematique": "Achats publics", "nom_projet": "Emmaüs Val de Brie & Sucy-en-Brie - Vélofcourses", "nom_projet_carto": "Sucy-en-Brie & Emmaüs Val de Brie - Vélofcourses", "annee": "2023", "nom_beneficaire": "Sucy-en-Brie", "cat_beneficiaire": "Commune", "representation_carto": "Adresse (point)", "montant_sub": null, "territoire": "T11", "competence": "Développement et d’aménagement économique, social et culturel" }, "geometry": { "type": "Point", "coordinates": [ 2.51154, 48.777981 ] } },
{ "type": "Feature", "properties": { "id_projet": "ecs-trophees-2023-04", "lib_com": "Romainville", "insee_com": "93063", "adresse": "11 Rue des Fontaines 93230 Romainville", "dispositif": "Lauréat Trophée", "thematique": "Alimentation et biodéchets", "nom_projet": "SCIC Nourrir l'Avenir & Romainville - Cantine 100% faite maison", "nom_projet_carto": "Romainville & SCIC Nourrir l'Avenir", "annee": "2023", "nom_beneficaire": "Romainville", "cat_beneficiaire": "Commune", "representation_carto": "Adresse (point)", "montant_sub": null, "territoire": "T08", "competence": "Développement et d’aménagement économique, social et culturel" }, "geometry": { "type": "Point", "coordinates": [ 2.428106, 48.883986 ] } },
{ "type": "Feature", "properties": { "id_projet": "ecs-trophees-2023-05", "lib_com": "Noisy-le-Grand", "insee_com": "93051", "adresse": "33 Rue du Ballon 93160 Noisy-le-Grand", "dispositif": "Lauréat Trophée", "thematique": "Deuxième vie des objets", "nom_projet": "Sneak’CœurZ & Noisy-le-Grand - Seconde vie aux baskets", "nom_projet_carto": "Noisy-le-Grand & Sneak’CœurZ", "annee": "2023", "nom_beneficaire": "Noisy-le-Grand", "cat_beneficiaire": "Commune", "representation_carto": "Adresse (point)", "montant_sub": null, "territoire": "T09", "competence": "Développement et d’aménagement économique, social et culturel" }, "geometry": { "type": "Point", "coordinates": [ 2.570921, 48.833595 ] } },
{ "type": "Feature", "properties": { "id_projet": "ecs-trophees-2023-06", "lib_com": "Vitry-sur-Seine", "insee_com": "94081", "adresse": "Avenue de l'Abbé Roger Derry 94400 Vitry-sur-Seine", "dispositif": "Lauréat Trophée", "thematique": "Deuxième vie des objets", "nom_projet": "Rejoué & Vitry-sur-Seine - Seconde vie aux jouets", "nom_projet_carto": "Vitry-sur-Seine & Rejoué", "annee": "2023", "nom_beneficaire": "Vitry-sur-Seine", "cat_beneficiaire": "Commune", "representation_carto": "Adresse (point)", "montant_sub": null, "territoire": "T12", "competence": "Développement et d’aménagement économique, social et culturel" }, "geometry": { "type": "Point", "coordinates": [ 2.391267, 48.790102 ] } },
{ "type": "Feature", "properties": { "id_projet": "ecs-trophees-2023-07", "lib_com": "Sevran", "insee_com": "93071", "adresse": "2bis Rue Paul Langevin 93270 Sevran", "dispositif": "Lauréat Trophée", "thematique": "Bâtiment et aménagement", "nom_projet": "Cycle Terre & Sevran - Production de matériaux  en terre crue à base d'excavation de chantier", "nom_projet_carto": "Sevran & Cycle Terre", "annee": "2023", "nom_beneficaire": "Sevran", "cat_beneficiaire": "Commune", "representation_carto": "Adresse (point)", "montant_sub": null, "territoire": "T07", "competence": "Développement et d’aménagement économique, social et culturel" }, "geometry": { "type": "Point", "coordinates": [ 2.528519, 48.946381 ] } },
{ "type": "Feature", "properties": { "id_projet": "ecs-trophees-2023-08", "lib_com": "Paris", "insee_com": "75120", "adresse": "10 Rue Julien Lacroix 75020 Paris", "dispositif": "Lauréat Trophée", "thematique": "Bâtiment et aménagement", "nom_projet": "Envie le Labo & Paris - Eco-lieu solidaire", "nom_projet_carto": "Paris & Envie le Labo", "annee": "2023", "nom_beneficaire": "Paris", "cat_beneficiaire": "EPT", "representation_carto": "Adresse (point)", "montant_sub": null, "territoire": "T01", "competence": "Développement et d’aménagement économique, social et culturel" }, "geometry": { "type": "Point", "coordinates": [ 2.385876, 48.869126 ] } },
{ "type": "Feature", "properties": { "id_projet": "ecs-trophees-2024-01", "lib_com": "Malakoff", "insee_com": "92046", "adresse": "51 Boulevard Gabriel Péri 92240 Malakoff", "dispositif": "Lauréat Trophée", "thematique": "Bâtiment et aménagement", "nom_projet": "Bellastock & Malakoff - Ferme urbaine Wangari Maathai", "nom_projet_carto": "Malakoff & Bellastock - Ferme urbaine Wangari Maathai", "annee": "2024", "nom_beneficaire": "Malakoff", "cat_beneficiaire": "Commune", "representation_carto": "Adresse (point)", "montant_sub": null, "territoire": "T02", "competence": "Développement et d’aménagement économique, social et culturel" }, "geometry": { "type": "Point", "coordinates": [ 2.299048, 48.819279 ] } },
{ "type": "Feature", "properties": { "id_projet": "ecs-trophees-2024-02", "lib_com": "Paris", "insee_com": "75119", "adresse": "105 Rue Curial 75019 Paris", "dispositif": "Lauréat Trophée", "thematique": "Bâtiment et aménagement", "nom_projet": "Au fil du rail & Paris - Le TLM", "nom_projet_carto": "Paris & Au fil du rail - Le TLM", "annee": "2024", "nom_beneficaire": "Paris", "cat_beneficiaire": "EPT", "representation_carto": "Adresse (point)", "montant_sub": null, "territoire": "T01", "competence": "Développement et d’aménagement économique, social et culturel" }, "geometry": { "type": "Point", "coordinates": [ 2.37809, 48.896476 ] } },
{ "type": "Feature", "properties": { "id_projet": "ecs-trophees-2024-04", "lib_com": "Sevran", "insee_com": "93071", "adresse": "Avenue Henri Barbusse 93270 Sevran", "dispositif": "Lauréat Trophée", "thematique": "Alimentation et biodéchets", "nom_projet": "Veni Verdi & Sevran - Micro ferme urbaine de Sevran", "nom_projet_carto": "Sevran & Veni Verdi", "annee": "2024", "nom_beneficaire": "Sevran", "cat_beneficiaire": "Commune", "representation_carto": "Adresse (point)", "montant_sub": null, "territoire": "T07", "competence": "Développement et d’aménagement économique, social et culturel" }, "geometry": { "type": "Point", "coordinates": [ 2.538241, 48.934563 ] } },
{ "type": "Feature", "properties": { "id_projet": "ecs-trophees-2024-05", "lib_com": "Aubervilliers", "insee_com": "93001", "adresse": "2 Rue Edgar Quinet 93300 Aubervilliers", "dispositif": "Lauréat Trophée", "thematique": "Alimentation et biodéchets", "nom_projet": "Aubervilliers & Une Oasis dans la ville - Autour de vous, création de filière locale de matière sèche", "nom_projet_carto": "Aubervilliers & Une Oasis dans la ville", "annee": "2024", "nom_beneficaire": "Aubervilliers", "cat_beneficiaire": "Commune", "representation_carto": "Adresse (point)", "montant_sub": null, "territoire": "T06", "competence": "Développement et d’aménagement économique, social et culturel" }, "geometry": { "type": "Point", "coordinates": [ 2.378678, 48.916515 ] } },
{ "type": "Feature", "properties": { "id_projet": "ecs-trophees-2024-07", "lib_com": "Paris", "insee_com": "75118", "adresse": "73 Rue de la Chapelle 75018 Paris", "dispositif": "Lauréat Trophée", "thematique": "Deuxième vie des objets", "nom_projet": "Paris & RepareSeb", "nom_projet_carto": "Paris & RepareSeb", "annee": "2024", "nom_beneficaire": "Paris", "cat_beneficiaire": "EPT", "representation_carto": "Adresse (point)", "montant_sub": null, "territoire": "T01", "competence": "Développement et d’aménagement économique, social et culturel" }, "geometry": { "type": "Point", "coordinates": [ 2.35876, 48.896727 ] } },
{ "type": "Feature", "properties": { "id_projet": "ecs-trophees-2024-08", "lib_com": "Cachan", "insee_com": "94016", "adresse": "179 Avenue Aristide Briand 94230 Cachan", "dispositif": "Lauréat Trophée", "thematique": "Deuxième vie des objets", "nom_projet": "Cachan & L'Accorderie - Développement de l'auto-réparation des objets du quotidien", "nom_projet_carto": "Cachan & L'Accorderie", "annee": "2024", "nom_beneficaire": "Cachan", "cat_beneficiaire": "Commune", "representation_carto": "Adresse (point)", "montant_sub": null, "territoire": "T12", "competence": "Développement et d’aménagement économique, social et culturel" }, "geometry": { "type": "Point", "coordinates": [ 2.3199, 48.790021 ] } },
{ "type": "Feature", "properties": { "id_projet": "ecs-trophees-2025-01", "lib_com": "Sceaux", "insee_com": "92071", "adresse": "1 Avenue Jules Guesde 92330 Sceaux", "dispositif": "Lauréat Trophée", "thematique": "Alimentation et biodéchets", "nom_projet": "COP1 & Sceaux - La Cant1ne, l'épicerie solidaire des COP1", "nom_projet_carto": "Sceaux & COP1 - La Cant1ne", "annee": "2025", "nom_beneficaire": "Sceaux", "cat_beneficiaire": "Commune", "representation_carto": "Adresse (point)", "montant_sub": null, "territoire": "T02", "competence": "Développement et d’aménagement économique, social et culturel" }, "geometry": { "type": "Point", "coordinates": [ 2.280561, 48.780475 ] } },
{ "type": "Feature", "properties": { "id_projet": "ecs-trophees-2025-03", "lib_com": "Gennevilliers", "insee_com": "92036", "adresse": "27 Avenue des Grésillons 92230 Gennevilliers", "dispositif": "Lauréat Trophée", "thematique": "Alimentation et biodéchets", "nom_projet": "Biocycle & Gennevilliers - Le relais du don alimentaire par Biocycle", "nom_projet_carto": "Gennevilliers & Biocycle", "annee": "2025", "nom_beneficaire": "Gennevilliers", "cat_beneficiaire": "Commune", "representation_carto": "Adresse (point)", "montant_sub": null, "territoire": "T05", "competence": "Développement et d’aménagement économique, social et culturel" }, "geometry": { "type": "Point", "coordinates": [ 2.298947, 48.913822 ] } },
{ "type": "Feature", "properties": { "id_projet": "ecs-trophees-2025-05", "lib_com": "Orly", "insee_com": "94054", "adresse": "38 Rue du Docteur Calmette 94310 Orly", "dispositif": "Lauréat Trophée", "thematique": "Deuxième vie des objets", "nom_projet": "La Recyclette du 9-4 & Orly - Vente de vélos de réemploi, électrification et réparation et accompagnement à la pratique", "nom_projet_carto": "Orly & La Recyclette du 9-4", "annee": "2025", "nom_beneficaire": "Orly", "cat_beneficiaire": "Commune", "representation_carto": "Adresse (point)", "montant_sub": null, "territoire": "T12", "competence": "Développement et d’aménagement économique, social et culturel" }, "geometry": { "type": "Point", "coordinates": [ 2.409326, 48.749156 ] } },
{ "type": "Feature", "properties": { "id_projet": "ecs-trophees-2025-06", "lib_com": "Pantin", "insee_com": "93055", "adresse": "148 Avenue Jean Jaurès 93500 Pantin", "dispositif": "Lauréat Trophée", "thematique": "Deuxième vie des objets", "nom_projet": "PAM ! & Pantin - Des trousses pas comme les autres, valorisation de bâche de communication", "nom_projet_carto": "Pantin & PAM !", "annee": "2025", "nom_beneficaire": "Pantin", "cat_beneficiaire": "Commune", "representation_carto": "Adresse (point)", "montant_sub": null, "territoire": "T08", "competence": "Développement et d’aménagement économique, social et culturel" }, "geometry": { "type": "Point", "coordinates": [ 2.397401, 48.908302 ] } },
{ "type": "Feature", "properties": { "id_projet": "ecs-trophees-2025-07", "lib_com": "Montreuil", "insee_com": "93048", "adresse": "198 Rue de Paris 93100 Montreuil", "dispositif": "Lauréat Trophée", "thematique": "Bâtiment et aménagement", "nom_projet": "Montreuil & Le Village du réemploi solidaire - Création d'un lieu dédié au réemploi solidaire : La Venelle", "nom_projet_carto": "Montreuil & Le Village du réemploi solidaire - La Venelle", "annee": "2025", "nom_beneficaire": "Montreuil", "cat_beneficiaire": "Commune", "representation_carto": "Adresse (point)", "montant_sub": null, "territoire": "T08", "competence": "Développement et d’aménagement économique, social et culturel" }, "geometry": { "type": "Point", "coordinates": [ 2.421927, 48.855592 ] } },
{ "type": "Feature", "properties": { "id_projet": "ecs-trophees-2025-08", "lib_com": "Périgny", "insee_com": "94056", "adresse": "6 Route de Brie Comte Robert 94520 Périgny", "dispositif": "Lauréat Trophée", "thematique": "Bâtiment et aménagement", "nom_projet": "Réavie & Grand Paris Sud Est Avenir - Maison de la Nature et de l'Environnement : nouveau centre de loisirs des Pérignons", "nom_projet_carto": "Grand Paris Sud Est Avenir & Réavie - La Maison de la Nature", "annee": "2025", "nom_beneficaire": "Grand Paris Sud Est Avenir", "cat_beneficiaire": "EPT", "representation_carto": "Adresse (point)", "montant_sub": null, "territoire": "T11", "competence": "Développement et d’aménagement économique, social et culturel" }, "geometry": { "type": "Point", "coordinates": [ 2.557307, 48.69632 ] } },
{ "type": "Feature", "properties": { "id_projet": "ecs-trophees-2025-09", "lib_com": "Châtenay-Malabry", "insee_com": "92019", "adresse": "40 Grande Voie des Vignes 92290 Châtenay-Malabry", "dispositif": "Lauréat Trophée", "thematique": "Alimentation et biodéchets", "nom_projet": "ESAT Vivre & Châtenay-Malabry - Ferme urbaine Volterre", "nom_projet_carto": "Châtenay-Malabry & ESAT Vivre - Ferme Volterre", "annee": "2025", "nom_beneficaire": "Châtenay-Malabry", "cat_beneficiaire": "Commune", "representation_carto": "Adresse (point)", "montant_sub": null, "territoire": "T02", "competence": "Développement et d’aménagement économique, social et culturel" }, "geometry": { "type": "Point", "coordinates": [ 2.289037, 48.766548 ] } },
{ "type": "Feature", "properties": { "id_projet": "ecs-trophees-2025-11", "lib_com": "Épinay-sur-Seine", "insee_com": "93031", "adresse": "Rue de Saint-Gratien 93800 Épinay-sur-Seine", "dispositif": "Lauréat Trophée", "thematique": "Bâtiment et aménagement", "nom_projet": "LAO SCOP & Épinay-sur-Seine - Maison de la Réserve écologique", "nom_projet_carto": "Épinay-sur-Seine & LAO SCOP - Maison de la Réserve écologique", "annee": "2025", "nom_beneficaire": "Épinay-sur-Seine", "cat_beneficiaire": "Commune", "representation_carto": "Adresse (point)", "montant_sub": null, "territoire": "T06", "competence": "Développement et d’aménagement économique, social et culturel" }, "geometry": { "type": "Point", "coordinates": [ 2.29942, 48.962336 ] } }
]
}
